{
  "type": "FeatureCollection",
  "features": [
    {
      "type": "Feature",
      "properties": {
        "norad_id": 38494,
        "name": "FENGYUN 1C DEB",
        "group": "fengyun-1c-debris",
        "lat": 14.6895744676445,
        "lon": -72.9523847458641,
        "alt_km": 626.105710892778,
        "timestamp": "2025-12-04T10:51:50.395269+00:00",
        "meta_object_name": "FENGYUN 1C DEB",
        "meta_object_id": "1999-025ESD",
        "meta_epoch": "2025-11-30T02:08:48.245856",
        "meta_mean_motion": 13.99599294,
        "meta_eccentricity": 0.0387254,
        "meta_inclination": 98.433,
        "meta_ra_of_asc_node": 285.2437,
        "meta_arg_of_pericenter": 44.6936,
        "meta_mean_anomaly": 318.476,
        "meta_ephemeris_type": 0,
        "meta_classification_type": "U",
        "meta_norad_cat_id": 38494,
        "meta_element_set_no": 999,
        "meta_rev_at_epoch": 6977,
        "meta_bstar": 0.0054391,
        "meta_mean_motion_dot": 0.00015208,
        "meta_mean_motion_ddot": 0,
        "tle_line1": "1 38494U 99025ESD 25334.08944729  .00015208  00000+0  54391-2 0  9992",
        "tle_line2": "2 38494  98.4330 285.2437 0387254  44.6936 318.4760 13.99599294 69777"
      },
      "geometry": {
        "type": "Point",
        "coordinates": [
          -72.9523847458641,
          14.6895744676445
        ]
      }
    },
    {
      "type": "Feature",
      "properties": {
        "norad_id": 38495,
        "name": "FENGYUN 1C DEB",
        "group": "fengyun-1c-debris",
        "lat": -19.084209128027293,
        "lon": -1.6082796147160234,
        "alt_km": 1194.1332215865123,
        "timestamp": "2025-12-04T10:51:50.395281+00:00",
        "meta_object_name": "FENGYUN 1C DEB",
        "meta_object_id": "1999-025ESE",
        "meta_epoch": "2025-12-02T06:20:41.771904",
        "meta_mean_motion": 13.69106573,
        "meta_eccentricity": 0.0252581,
        "meta_inclination": 99.1709,
        "meta_ra_of_asc_node": 353.1036,
        "meta_arg_of_pericenter": 165.9119,
        "meta_mean_anomaly": 194.9245,
        "meta_ephemeris_type": 0,
        "meta_classification_type": "U",
        "meta_norad_cat_id": 38495,
        "meta_element_set_no": 999,
        "meta_rev_at_epoch": 60969,
        "meta_bstar": 0.0025866,
        "meta_mean_motion_dot": 2.759e-05,
        "meta_mean_motion_ddot": 0,
        "tle_line1": "1 38495U 99025ESE 25336.26437236  .00002759  00000+0  25866-2 0  9997",
        "tle_line2": "2 38495  99.1709 353.1036 0252581 165.9119 194.9245 13.69106573609697"
      },
      "geometry": {
        "type": "Point",
        "coordinates": [
          -1.6082796147160234,
          -19.084209128027293
        ]
      }
    },
    {
      "type": "Feature",
      "properties": {
        "norad_id": 38496,
        "name": "FENGYUN 1C DEB",
        "group": "fengyun-1c-debris",
        "lat": -32.871962893548705,
        "lon": -5.8840745969430195,
        "alt_km": 840.5835212239999,
        "timestamp": "2025-12-04T10:51:50.395292+00:00",
        "meta_object_name": "FENGYUN 1C DEB",
        "meta_object_id": "1999-025ESF",
        "meta_epoch": "2025-12-02T19:50:53.821248",
        "meta_mean_motion": 14.09951283,
        "meta_eccentricity": 0.00773026,
        "meta_inclination": 98.7623,
        "meta_ra_of_asc_node": 346.8127,
        "meta_arg_of_pericenter": 35.254,
        "meta_mean_anomaly": 325.371,
        "meta_ephemeris_type": 0,
        "meta_classification_type": "U",
        "meta_norad_cat_id": 38496,
        "meta_element_set_no": 999,
        "meta_rev_at_epoch": 80881,
        "meta_bstar": 0.0012363442,
        "meta_mean_motion_dot": 2.198e-05,
        "meta_mean_motion_ddot": 0,
        "tle_line1": "1 38496U 99025ESF 25336.82701182  .00002198  00000+0  12363-2 0  9999",
        "tle_line2": "2 38496  98.7623 346.8127 0077302  35.2540 325.3710 14.09951283808814"
      },
      "geometry": {
        "type": "Point",
        "coordinates": [
          -5.8840745969430195,
          -32.871962893548705
        ]
      }
    },
    {
      "type": "Feature",
      "properties": {
        "norad_id": 38498,
        "name": "FENGYUN 1C DEB",
        "group": "fengyun-1c-debris",
        "lat": -74.24164344774694,
        "lon": 36.921620707183415,
        "alt_km": 1699.451643203418,
        "timestamp": "2025-12-04T10:51:50.395302+00:00",
        "meta_object_name": "FENGYUN 1C DEB",
        "meta_object_id": "1999-025ESH",
        "meta_epoch": "2025-12-02T07:26:08.627712",
        "meta_mean_motion": 12.96587855,
        "meta_eccentricity": 0.05567868,
        "meta_inclination": 99.6992,
        "meta_ra_of_asc_node": 357.7083,
        "meta_arg_of_pericenter": 95.9018,
        "meta_mean_anomaly": 270.5803,
        "meta_ephemeris_type": 0,
        "meta_classification_type": "U",
        "meta_norad_cat_id": 38498,
        "meta_element_set_no": 999,
        "meta_rev_at_epoch": 53608,
        "meta_bstar": 0.0021056117,
        "meta_mean_motion_dot": 1.199e-05,
        "meta_mean_motion_ddot": 0,
        "tle_line1": "1 38498U 99025ESH 25336.30982208  .00001199  00000+0  21056-2 0  9993",
        "tle_line2": "2 38498  99.6992 357.7083 0556786  95.9018 270.5803 12.96587855536083"
      },
      "geometry": {
        "type": "Point",
        "coordinates": [
          36.921620707183415,
          -74.24164344774694
        ]
      }
    },
    {
      "type": "Feature",
      "properties": {
        "norad_id": 38510,
        "name": "FENGYUN 1C DEB",
        "group": "fengyun-1c-debris",
        "lat": -14.816455003895928,
        "lon": 165.5552359574526,
        "alt_km": 786.554647892187,
        "timestamp": "2025-12-04T10:51:50.395312+00:00",
        "meta_object_name": "FENGYUN 1C DEB",
        "meta_object_id": "1999-025ESV",
        "meta_epoch": "2025-11-26T06:32:42.236448",
        "meta_mean_motion": 14.13269737,
        "meta_eccentricity": 0.00981735,
        "meta_inclination": 98.6025,
        "meta_ra_of_asc_node": 339.985,
        "meta_arg_of_pericenter": 196.9618,
        "meta_mean_anomaly": 162.8266,
        "meta_ephemeris_type": 0,
        "meta_classification_type": "U",
        "meta_norad_cat_id": 38510,
        "meta_element_set_no": 999,
        "meta_rev_at_epoch": 88437,
        "meta_bstar": 0.0006714866,
        "meta_mean_motion_dot": 1.276e-05,
        "meta_mean_motion_ddot": 0,
        "tle_line1": "1 38510U 99025ESV 25330.27271107  .00001276  00000+0  67149-3 0  9997",
        "tle_line2": "2 38510  98.6025 339.9850 0098173 196.9618 162.8266 14.13269737884378"
      },
      "geometry": {
        "type": "Point",
        "coordinates": [
          165.5552359574526,
          -14.816455003895928
        ]
      }
    },
    {
      "type": "Feature",
      "properties": {
        "norad_id": 38512,
        "name": "FENGYUN 1C DEB",
        "group": "fengyun-1c-debris",
        "lat": -32.25077159112535,
        "lon": -133.39127890497062,
        "alt_km": 1147.5691572107498,
        "timestamp": "2025-12-04T10:51:50.395322+00:00",
        "meta_object_name": "FENGYUN 1C DEB",
        "meta_object_id": "1999-025ESX",
        "meta_epoch": "2025-11-24T15:04:33.900960",
        "meta_mean_motion": 13.73922037,
        "meta_eccentricity": 0.02258852,
        "meta_inclination": 98.3776,
        "meta_ra_of_asc_node": 212.6517,
        "meta_arg_of_pericenter": 154.1881,
        "meta_mean_anomaly": 207.075,
        "meta_ephemeris_type": 0,
        "meta_classification_type": "U",
        "meta_norad_cat_id": 38512,
        "meta_element_set_no": 999,
        "meta_rev_at_epoch": 59321,
        "meta_bstar": 0.0011065478,
        "meta_mean_motion_dot": 1.212e-05,
        "meta_mean_motion_ddot": 0,
        "tle_line1": "1 38512U 99025ESX 25328.62817015  .00001212  00000+0  11065-2 0  9994",
        "tle_line2": "2 38512  98.3776 212.6517 0225885 154.1881 207.0750 13.73922037593211"
      },
      "geometry": {
        "type": "Point",
        "coordinates": [
          -133.39127890497062,
          -32.25077159112535
        ]
      }
    },
    {
      "type": "Feature",
      "properties": {
        "norad_id": 38513,
        "name": "FENGYUN 1C DEB",
        "group": "fengyun-1c-debris",
        "lat": 82.20197343748897,
        "lon": 162.0806279478865,
        "alt_km": 813.4497293828817,
        "timestamp": "2025-12-04T10:51:50.395333+00:00",
        "meta_object_name": "FENGYUN 1C DEB",
        "meta_object_id": "1999-025ESY",
        "meta_epoch": "2025-11-05T11:10:23.483712",
        "meta_mean_motion": 14.74191137,
        "meta_eccentricity": 0.02562234,
        "meta_inclination": 97.6286,
        "meta_ra_of_asc_node": 212.8757,
        "meta_arg_of_pericenter": 7.2303,
        "meta_mean_anomaly": 353.249,
        "meta_ephemeris_type": 0,
        "meta_classification_type": "U",
        "meta_norad_cat_id": 38513,
        "meta_element_set_no": 999,
        "meta_rev_at_epoch": 63108,
        "meta_bstar": 0.0018759347,
        "meta_mean_motion_dot": 0.0002109,
        "meta_mean_motion_ddot": 0,
        "tle_line1": "1 38513U 99025ESY 25309.46554958  .00021090  00000+0  18759-2 0  9993",
        "tle_line2": "2 38513  97.6286 212.8757 0256223   7.2303 353.2490 14.74191137631089"
      },
      "geometry": {
        "type": "Point",
        "coordinates": [
          162.0806279478865,
          82.20197343748897
        ]
      }
    }
  ]
}